{
  "type": "FeatureCollection",
  "features": [
    {
      "type": "Feature",
      "properties": {
        "norad_id": 30389,
        "name": "FENGYUN 1C DEB",
        "group": "fengyun-1c-debris",
        "lat": 50.89985069892879,
        "lon": 61.6684815840371,
        "alt_km": 749.6308943527183,
        "timestamp": "2025-12-17T07:00:47.180144+00:00",
        "meta_object_name": "FENGYUN 1C DEB",
        "meta_object_id": "1999-025ADC",
        "meta_epoch": "2025-12-16T19:40:39.029088",
        "meta_mean_motion": 14.44120442,
        "meta_eccentricity": 0.00144793,
        "meta_inclination": 98.8385,
        "meta_ra_of_asc_node": 72.2161,
        "meta_arg_of_pericenter": 209.6832,
        "meta_mean_anomaly": 268.1165,
        "meta_ephemeris_type": 0,
        "meta_classification_type": "U",
        "meta_norad_cat_id": 30389,
        "meta_element_set_no": 999,
        "meta_rev_at_epoch": 97845,
        "meta_bstar": 0.0017322746,
        "meta_mean_motion_dot": 5.9e-05,
        "meta_mean_motion_ddot": 0,
        "tle_line1": "1 30389U 99025ADC 25350.81989617  .00005900  00000+0  17323-2 0  9993",
        "tle_line2": "2 30389  98.8385  72.2161 0014479 209.6832 268.1165 14.44120442978458"
      },
      "geometry": {
        "type": "Point",
        "coordinates": [
          61.6684815840371,
          50.89985069892879
        ]
      }
    },
    {
      "type": "Feature",
      "properties": {
        "norad_id": 30390,
        "name": "FENGYUN 1C DEB",
        "group": "fengyun-1c-debris",
        "lat": 18.53208388821061,
        "lon": 71.57349476797054,
        "alt_km": 825.5625232320745,
        "timestamp": "2025-12-17T07:00:47.180154+00:00",
        "meta_object_name": "FENGYUN 1C DEB",
        "meta_object_id": "1999-025ADD",
        "meta_epoch": "2025-12-16T04:20:51.559584",
        "meta_mean_motion": 14.29764218,
        "meta_eccentricity": 0.00680612,
        "meta_inclination": 98.8234,
        "meta_ra_of_asc_node": 73.4327,
        "meta_arg_of_pericenter": 154.667,
        "meta_mean_anomaly": 269.2104,
        "meta_ephemeris_type": 0,
        "meta_classification_type": "U",
        "meta_norad_cat_id": 30390,
        "meta_element_set_no": 999,
        "meta_rev_at_epoch": 97433,
        "meta_bstar": 0.0012633053,
        "meta_mean_motion_dot": 3.282e-05,
        "meta_mean_motion_ddot": 0,
        "tle_line1": "1 30390U 99025ADD 25350.18115231  .00003282  00000+0  12633-2 0  9998",
        "tle_line2": "2 30390  98.8234  73.4327 0068061 154.6670 269.2104 14.29764218974331"
      },
      "geometry": {
        "type": "Point",
        "coordinates": [
          71.57349476797054,
          18.53208388821061
        ]
      }
    },
    {
      "type": "Feature",
      "properties": {
        "norad_id": 30391,
        "name": "FENGYUN 1C DEB",
        "group": "fengyun-1c-debris",
        "lat": 70.25120247772333,
        "lon": 11.732119910755438,
        "alt_km": 882.7921362223051,
        "timestamp": "2025-12-17T07:00:47.180165+00:00",
        "meta_object_name": "FENGYUN 1C DEB",
        "meta_object_id": "1999-025ADE",
        "meta_epoch": "2025-12-16T16:00:04.912128",
        "meta_mean_motion": 14.16255404,
        "meta_eccentricity": 0.00715996,
        "meta_inclination": 98.7809,
        "meta_ra_of_asc_node": 36.6164,
        "meta_arg_of_pericenter": 250.7652,
        "meta_mean_anomaly": 234.2729,
        "meta_ephemeris_type": 0,
        "meta_classification_type": "U",
        "meta_norad_cat_id": 30391,
        "meta_element_set_no": 999,
        "meta_rev_at_epoch": 96934,
        "meta_bstar": 0.00097426433,
        "meta_mean_motion_dot": 1.935e-05,
        "meta_mean_motion_ddot": 0,
        "tle_line1": "1 30391U 99025ADE 25350.66672352  .00001935  00000+0  97426-3 0  9991",
        "tle_line2": "2 30391  98.7809  36.6164 0071599 250.7652 234.2729 14.16255404969345"
      },
      "geometry": {
        "type": "Point",
        "coordinates": [
          11.732119910755438,
          70.25120247772333
        ]
      }
    },
    {
      "type": "Feature",
      "properties": {
        "norad_id": 30392,
        "name": "FENGYUN 1C DEB",
        "group": "fengyun-1c-debris",
        "lat": -78.94998529382772,
        "lon": 62.11525450524357,
        "alt_km": 822.8369574502003,
        "timestamp": "2025-12-17T07:00:47.180175+00:00",
        "meta_object_name": "FENGYUN 1C DEB",
        "meta_object_id": "1999-025ADF",
        "meta_epoch": "2025-12-16T20:18:17.158752",
        "meta_mean_motion": 14.07462772,
        "meta_eccentricity": 0.01808015,
        "meta_inclination": 98.7853,
        "meta_ra_of_asc_node": 9.3199,
        "meta_arg_of_pericenter": 345.3049,
        "meta_mean_anomaly": 193.8513,
        "meta_ephemeris_type": 0,
        "meta_classification_type": "U",
        "meta_norad_cat_id": 30392,
        "meta_element_set_no": 999,
        "meta_rev_at_epoch": 96728,
        "meta_bstar": 0.00055711275,
        "meta_mean_motion_dot": 1.045e-05,
        "meta_mean_motion_ddot": 0,
        "tle_line1": "1 30392U 99025ADF 25350.84603193  .00001045  00000+0  55711-3 0  9992",
        "tle_line2": "2 30392  98.7853   9.3199 0180801 345.3049 193.8513 14.07462772967288"
      },
      "geometry": {
        "type": "Point",
        "coordinates": [
          62.11525450524357,
          -78.94998529382772
        ]
      }
    },
    {
      "type": "Feature",
      "properties": {
        "norad_id": 30393,
        "name": "FENGYUN 1C DEB",
        "group": "fengyun-1c-debris",
        "lat": -51.9562496182776,
        "lon": -142.82749652300893,
        "alt_km": 855.1575109677415,
        "timestamp": "2025-12-17T07:00:47.180185+00:00",
        "meta_object_name": "FENGYUN 1C DEB",
        "meta_object_id": "1999-025ADG",
        "meta_epoch": "2025-12-16T09:35:58.180416",
        "meta_mean_motion": 13.98987633,
        "meta_eccentricity": 0.00695995,
        "meta_inclination": 99.1647,
        "meta_ra_of_asc_node": 48.1861,
        "meta_arg_of_pericenter": 249.8812,
        "meta_mean_anomaly": 171.9977,
        "meta_ephemeris_type": 0,
        "meta_classification_type": "U",
        "meta_norad_cat_id": 30393,
        "meta_element_set_no": 999,
        "meta_rev_at_epoch": 96381,
        "meta_bstar": 0.00030225245,
        "meta_mean_motion_dot": 4e-06,
        "meta_mean_motion_ddot": 0,
        "tle_line1": "1 30393U 99025ADG 25350.39997894  .00000400  00000+0  30225-3 0  9994",
        "tle_line2": "2 30393  99.1647  48.1861 0069599 249.8812 171.9977 13.98987633963811"
      },
      "geometry": {
        "type": "Point",
        "coordinates": [
          -142.82749652300893,
          -51.9562496182776
        ]
      }
    },
    {
      "type": "Feature",
      "properties": {
        "norad_id": 30394,
        "name": "FENGYUN 1C DEB",
        "group": "fengyun-1c-debris",
        "lat": 28.085385572450136,
        "lon": -155.2461744876515,
        "alt_km": 876.0651631631054,
        "timestamp": "2025-12-17T07:00:47.180196+00:00",
        "meta_object_name": "FENGYUN 1C DEB",
        "meta_object_id": "1999-025ADH",
        "meta_epoch": "2025-12-16T15:21:39.430080",
        "meta_mean_motion": 13.95789801,
        "meta_eccentricity": 0.00898257,
        "meta_inclination": 99.4348,
        "meta_ra_of_asc_node": 18.9958,
        "meta_arg_of_pericenter": 90.9829,
        "meta_mean_anomaly": 24.2037,
        "meta_ephemeris_type": 0,
        "meta_classification_type": "U",
        "meta_norad_cat_id": 30394,
        "meta_element_set_no": 999,
        "meta_rev_at_epoch": 96158,
        "meta_bstar": 0.00010717073,
        "meta_mean_motion_dot": 1.05e-06,
        "meta_mean_motion_ddot": 0,
        "tle_line1": "1 30394U 99025ADH 25350.64003970  .00000105  00000+0  10717-3 0  9992",
        "tle_line2": "2 30394  99.4348  18.9958 0089825  90.9829  24.2037 13.95789801961585"
      },
      "geometry": {
        "type": "Point",
        "coordinates": [
          -155.2461744876515,
          28.085385572450136
        ]
      }
    },
    {
      "type": "Feature",
      "properties": {
        "norad_id": 30395,
        "name": "FENGYUN 1C DEB",
        "group": "fengyun-1c-debris",
        "lat": -45.33610108074523,
        "lon": 15.876028858703263,
        "alt_km": 851.4823063876129,
        "timestamp": "2025-12-17T07:00:47.180206+00:00",
        "meta_object_name": "FENGYUN 1C DEB",
        "meta_object_id": "1999-025ADJ",
        "meta_epoch": "2025-12-16T22:55:45.631200",
        "meta_mean_motion": 13.96697272,
        "meta_eccentricity": 0.01601442,
        "meta_inclination": 98.9302,
        "meta_ra_of_asc_node": 6.3949,
        "meta_arg_of_pericenter": 14.5445,
        "meta_mean_anomaly": 48.4046,
        "meta_ephemeris_type": 0,
        "meta_classification_type": "U",
        "meta_norad_cat_id": 30395,
        "meta_element_set_no": 999,
        "meta_rev_at_epoch": 96082,
        "meta_bstar": 0.00035818247,
        "meta_mean_motion_dot": 5.11e-06,
        "meta_mean_motion_ddot": 0,
        "tle_line1": "1 30395U 99025ADJ 25350.95538925  .00000511  00000+0  35818-3 0  9990",
        "tle_line2": "2 30395  98.9302   6.3949 0160144  14.5445  48.4046 13.96697272960826"
      },
      "geometry": {
        "type": "Point",
        "coordinates": [
          15.876028858703263,
          -45.33610108074523
        ]
      }
    }
  ]
}